0 SL-8 DEB
1 15784U 79060D   13280.56879956  .00001072  00000-0  22339-3 0  7008
2 15784 074.0027 318.9677 0003709 202.6035 309.7501 14.61276777512040
0 SL-8 DEB
1 15784U 79060D   13282.87900620  .00001428  00000-0  29541-3 0  7015
2 15784 074.0024 314.5414 0003595 198.5435 221.9071 14.61287379512382
0 SL-8 DEB
1 15784U 79060D   13287.48514319  .00001707  00000-0  35165-3 0  7034
2 15784 074.0018 305.7156 0003331 189.8574 331.9279 14.61300153513058
0 SL-8 DEB
1 15784U 79060D   13289.73627435  .00002094  00000-0  42994-3 0  7047
2 15784 074.0019 301.4018 0003220 184.9880 294.4542 14.61312932513382
0 SL-8 DEB
1 15784U 79060D   13292.13153328  .00002404  00000-0  49259-3 0  7057
2 15784 074.0024 296.8139 0003242 179.8669 295.2323 14.61319191513730
0 SL-8 DEB
1 15784U 79060D   13294.38172576  .00003098  00000-0  63288-3 0  7061
2 15784 074.0029 292.5018 0003057 174.7687 253.2163 14.61328347514068
